{
  "links" : {
    "next" : "https://api.nasa.gov/neo/rest/v1/feed?start_date=2016-06-16&end_date=2016-06-16&detailed=true&api_key=t0TVs3DtDT2H8Oy2Zy8m2eVrNsAVKAexjcZXUckd",
    "prev" : "https://api.nasa.gov/neo/rest/v1/feed?start_date=2016-06-14&end_date=2016-06-14&detailed=true&api_key=t0TVs3DtDT2H8Oy2Zy8m2eVrNsAVKAexjcZXUckd",
    "self" : "https://api.nasa.gov/neo/rest/v1/feed?start_date=2016-06-15&end_date=2016-06-15&detailed=true&api_key=t0TVs3DtDT2H8Oy2Zy8m2eVrNsAVKAexjcZXUckd"
  },
  "element_count" : 14,
  "near_earth_objects" : {
    "2016-06-15" : [ {
      "links" : {
        "self" : "https://api.nasa.gov/neo/rest/v1/neo/3754280?api_key=t0TVs3DtDT2H8Oy2Zy8m2eVrNsAVKAexjcZXUckd"
      },
      "neo_reference_id" : "3754280",
      "name" : "(2016 LG49)",
      "nasa_jpl_url" : "http://ssd.jpl.nasa.gov/sbdb.cgi?sstr=3754280",
      "absolute_magnitude_h" : 22.4,
      "estimated_diameter" : {
        "kilometers" : {
          "estimated_diameter_min" : 0.0880146521,
          "estimated_diameter_max" : 0.1968067451
        },
        "meters" : {
          "estimated_diameter_min" : 88.0146520901,
          "estimated_diameter_max" : 196.8067450894
        },
        "miles" : {
          "estimated_diameter_min" : 0.0546897524,
          "estimated_diameter_max" : 0.122290004
        },
        "feet" : {
          "estimated_diameter_min" : 288.7619911632,
          "estimated_diameter_max" : 645.6914415591
        }
      },
      "is_potentially_hazardous_asteroid" : false,
      "close_approach_data" : [ {
        "close_approach_date" : "2016-06-15",
        "epoch_date_close_approach" : 1465974000000,
        "relative_velocity" : {
          "kilometers_per_second" : "17.3721044342",
          "kilometers_per_hour" : "62539.5759629987",
          "miles_per_hour" : "38859.6604087866"
        },
        "miss_distance" : {
          "astronomical" : "0.0388275059",
          "lunar" : "15.1038990021",
          "kilometers" : "5808512",
          "miles" : "3609242"
        },
        "orbiting_body" : "Earth"
      } ],
      "orbital_data" : {
        "orbit_id" : "16",
        "orbit_determination_date" : "2017-04-06 08:25:19",
        "orbit_uncertainty" : "8",
        "minimum_orbit_intersection" : ".0333715",
        "jupiter_tisserand_invariant" : "5.415",
        "epoch_osculation" : "2457555.5",
        "eccentricity" : ".3816180570984154",
        "semi_major_axis" : "1.121217896494648",
        "inclination" : "25.59219701210302",
        "ascending_node_longitude" : "86.97670631257932",
        "orbital_period" : "433.6441167313341",
        "perihelion_distance" : ".6933409012503885",
        "perihelion_argument" : "75.09480223931685",
        "aphelion_distance" : "1.549094891738908",
        "perihelion_time" : "2457486.538004189179",
        "mean_anomaly" : "57.25044462502601",
        "mean_motion" : ".83017383635586",
        "equinox" : "J2000"
      }
    }, {
      "links" : {
        "self" : "https://api.nasa.gov/neo/rest/v1/neo/2468727?api_key=t0TVs3DtDT2H8Oy2Zy8m2eVrNsAVKAexjcZXUckd"
      },
      "neo_reference_id" : "2468727",
      "name" : "468727 (2010 JE87)",
      "nasa_jpl_url" : "http://ssd.jpl.nasa.gov/sbdb.cgi?sstr=2468727",
      "absolute_magnitude_h" : 20.8,
      "estimated_diameter" : {
        "kilometers" : {
          "estimated_diameter_min" : 0.1838886721,
          "estimated_diameter_max" : 0.411187571
        },
        "meters" : {
          "estimated_diameter_min" : 183.8886720703,
          "estimated_diameter_max" : 411.1875710413
        },
        "miles" : {
          "estimated_diameter_min" : 0.1142630881,
          "estimated_diameter_max" : 0.2555000322
        },
        "feet" : {
          "estimated_diameter_min" : 603.309310875,
          "estimated_diameter_max" : 1349.040630575
        }
      },
      "is_potentially_hazardous_asteroid" : true,
      "close_approach_data" : [ {
        "close_approach_date" : "2016-06-15",
        "epoch_date_close_approach" : 1465974000000,
        "relative_velocity" : {
          "kilometers_per_second" : "12.9733579906",
          "kilometers_per_hour" : "46704.0887661449",
          "miles_per_hour" : "29020.1044891637"
        },
        "miss_distance" : {
          "astronomical" : "0.2880998028",
          "lunar" : "112.0708236694",
          "kilometers" : "43099116",
          "miles" : "26780550"
        },
        "orbiting_body" : "Earth"
      } ],
      "orbital_data" : {
        "orbit_id" : "29",
        "orbit_determination_date" : "2017-04-06 09:19:20",
        "orbit_uncertainty" : "0",
        "minimum_orbit_intersection" : ".0343851",
        "jupiter_tisserand_invariant" : "6.471",
        "epoch_osculation" : "2458000.5",
        "eccentricity" : ".4369551957466873",
        "semi_major_axis" : ".9044080437219572",
        "inclination" : "16.9208815716098",
        "ascending_node_longitude" : "120.5198624026117",
        "orbital_period" : "314.1557776629186",
        "perihelion_distance" : ".5092222499425508",
        "perihelion_argument" : "242.3237910571342",
        "aphelion_distance" : "1.299593837501363",
        "perihelion_time" : "2457918.222884323871",
        "mean_anomaly" : "94.2836762823692",
        "mean_motion" : "1.145928311992629",
        "equinox" : "J2000"
      }
    }, {
      "links" : {
        "self" : "https://api.nasa.gov/neo/rest/v1/neo/2471487?api_key=t0TVs3DtDT2H8Oy2Zy8m2eVrNsAVKAexjcZXUckd"
      },
      "neo_reference_id" : "2471487",
      "name" : "471487 (2011 VS5)",
      "nasa_jpl_url" : "http://ssd.jpl.nasa.gov/sbdb.cgi?sstr=2471487",
      "absolute_magnitude_h" : 19.6,
      "estimated_diameter" : {
        "kilometers" : {
          "estimated_diameter_min" : 0.3195618867,
          "estimated_diameter_max" : 0.7145621017
        },
        "meters" : {
          "estimated_diameter_min" : 319.5618867213,
          "estimated_diameter_max" : 714.5621017269
        },
        "miles" : {
          "estimated_diameter_min" : 0.1985664891,
          "estimated_diameter_max" : 0.4440081677
        },
        "feet" : {
          "estimated_diameter_min" : 1048.4314204307,
          "estimated_diameter_max" : 2344.3639258298
        }
      },
      "is_potentially_hazardous_asteroid" : false,
      "close_approach_data" : [ {
        "close_approach_date" : "2016-06-15",
        "epoch_date_close_approach" : 1465974000000,
        "relative_velocity" : {
          "kilometers_per_second" : "16.5435179918",
          "kilometers_per_hour" : "59556.6647705891",
          "miles_per_hour" : "37006.1953959252"
        },
        "miss_distance" : {
          "astronomical" : "0.2159547674",
          "lunar" : "84.006401062",
          "kilometers" : "32306374",
          "miles" : "20074250"
        },
        "orbiting_body" : "Earth"
      } ],
      "orbital_data" : {
        "orbit_id" : "27",
        "orbit_determination_date" : "2017-04-06 09:19:11",
        "orbit_uncertainty" : "1",
        "minimum_orbit_intersection" : ".155886",
        "jupiter_tisserand_invariant" : "5.077",
        "epoch_osculation" : "2458000.5",
        "eccentricity" : ".4216714464392953",
        "semi_major_axis" : "1.237943964270075",
        "inclination" : "9.125430863053754",
        "ascending_node_longitude" : "356.1518403125909",
        "orbital_period" : "503.0948909124533",
        "perihelion_distance" : ".7159383422455171",
        "perihelion_argument" : "172.7998328220878",
        "aphelion_distance" : "1.759949586294633",
        "perihelion_time" : "2458000.495539936478",
        "mean_anomaly" : ".003191491102382404",
        "mean_motion" : ".7155707730346358",
        "equinox" : "J2000"
      }
    } ]
  }
}